PROBA-1                 
1 26958U 01049B   22240.44634689  .00001257  00000+0  11018-3 0  9996
2 26958  97.8285 200.3399 0073171 103.7006 257.2375 14.96503572135241
BIRD 2                  
1 26959U 01049C   22240.20255933  .00009650  00000+0  20085-3 0  9991
2 26959  97.7636 336.9178 0007610 112.4587 247.7467 15.45822896158023
CUTE-1 (CO-55)          
1 27844U 03031E   22239.96227873  .00000122  00000+0  74455-4 0  9997
2 27844  98.6801 246.5726 0008654 253.4305 106.5923 14.22484186994071
CUBESAT XI-IV (CO-57)   
1 27848U 03031J   22239.80690575  .00000103  00000+0  66293-4 0  9997
2 27848  98.6846 246.9240 0008527 270.2119  89.8082 14.22037076993821
GENESIS 1               
1 29252U 06029A   22239.60743707  .00002020  00000+0  96187-4 0  9997
2 29252  64.5199 197.3484 0056565 251.3422 108.1557 15.21142778889794
FALCONSAT-3             
1 30776U 07006E   22240.13107181  .00035880  00000+0  45996-3 0  9997
2 30776  35.4300 149.0598 0004048 312.2131  47.8259 15.58119969860750
GENESIS 2               
1 31789U 07028A   22239.73174452  .00002263  00000+0  11047-3 0  9994
2 31789  64.4933 240.3008 0053889 304.2505  55.3520 15.20011046836735
APRIZESAT 4             
1 35684U 09041D   22240.52376489  .00000284  00000+0  44806-4 0  9993
2 35684  98.3107 256.6385 0047979 119.8222 240.7771 14.79707310705775
APRIZESAT 3             
1 35686U 09041F   22240.18436194  .00000358  00000+0  43943-4 0  9990
2 35686  98.1060 328.4546 0070961 312.7123  46.8131 14.88018334709322
PROBA-2                 
1 36037U 09059B   22240.10339693  .00000052  00000+0  23306-4 0  9990
2 36037  98.2250  65.3531 0012202 246.1455 113.8463 14.53284678679752
APRIZESAT 5             
1 37792U 11044E   22240.23674155  .00000262  00000+0  45371-4 0  9994
2 37792  98.3142 117.7445 0058602 134.5546 226.0470 14.75817360593735
APRIZESAT 6             
1 37793U 11044F   22240.20075060  .00000233  00000+0  44509-4 0  9992
2 37793  98.3938  94.6857 0046373 186.4991 291.5796 14.72835140592573
TET-1                   
1 38710U 12039D   22240.17169655  .00064294  00000+0  37588-3 0  9992
2 38710  97.5061 326.5569 0001978 152.9906 207.1463 15.78187375568691
PROBA-V                 
1 39159U 13021A   22240.29501769  .00000016  00000+0  25303-4 0  9996
2 39159  98.3531 272.5553 0003191 230.1882 129.9016 14.23045475483542
STPSAT-3                
1 39380U 13064A   22239.60450226  .00020882  00000+0  40010-3 0  9997
2 39380  40.4985 328.9834 0005964 107.1138 253.0334 15.47462889490318
APRIZESAT 7             
1 39416U 13066A   22240.47401022  .00000396  00000+0  52342-4 0  9996
2 39416  97.5784 217.0264 0042110 119.6803 240.8615 14.84538417474751
APRIZESAT 8             
1 39425U 13066K   22240.17186429  .00000294  00000+0  42991-4 0  9990
2 39425  97.6331 208.2487 0051851 164.0452 196.2410 14.81684161473857
BUGSAT-1 (TITA)         
1 40014U 14033E   22240.26514757  .00000111  00000+0  15225-4 0  9998
2 40014  98.1461 241.6170 0030901 157.7899 202.4686 14.96920564446884
SAUDISAT 4              
1 40016U 14033G   22240.11154386  .00000180  00000+0  33143-4 0  9997
2 40016  97.6405  71.0169 0046560 268.9659  90.6216 14.75604930440982
APRIZESAT 9             
1 40018U 14033J   22240.47360130  .00000146  00000+0  31179-4 0  9993
2 40018  97.7223  47.2184 0070606 343.4589  16.4314 14.70312606439360
APRIZESAT 10            
1 40019U 14033K   22240.43674824  .00000128  00000+0  29724-4 0  9991
2 40019  97.7775  36.9838 0084514  27.5522 333.0125 14.67353901438539
TDS 1                   
1 40076U 14037H   22239.89712778  .00000956  00000+0  11671-3 0  9997
2 40076  98.3807 116.6045 0006308 189.5457 170.5638 14.85862106440316
TIANTUO 2               
1 40144U 14053B   22240.44784898  .00002414  00000+0  65480-4 0  9995
2 40144  97.1917 318.9761 0009200 305.0319 111.4344 15.38553069446160
TECHNOSAT               
1 42829U 17042E   22240.18251351  .00000663  00000+0  70430-4 0  9997
2 42829  97.4141  90.1161 0015242 123.6742 236.5934 14.91999204278782
FLYING LAPTOP           
1 42831U 17042G   22239.82825804  .00000655  00000+0  69839-4 0  9991
2 42831  97.4172  90.1144 0015164 124.8673 235.3954 14.91891054278737
HAWK-A                  
1 43765U 18099H   22239.85491753  .00000958  00000+0  87486-4 0  9990
2 43765  97.6137 306.0454 0015210  37.0349 323.1919 14.97252642203822
HAWK-B                  
1 43794U 18099AN  22239.78847163  .00000967  00000+0  88280-4 0  9997
2 43794  97.6137 305.9805 0015283  37.4333 322.7950 14.97252179203802
HAWK-C                  
1 43799U 18099AT  22239.72146135  .00000976  00000+0  89033-4 0  9994
2 43799  97.6136 305.8231 0015170  37.4748 322.7529 14.97252508204543
SALSAT                  
1 46495U 20068K   22239.78680719  .00001855  00000+0  13567-3 0  9991
2 46495  97.7321 181.1311 0017358  40.0545 320.1957 15.04752272104914
